CCSDS_OMM_VERS = 2.0
CREATION_DATE  = 
ORIGINATOR     = 

OBJECT_NAME    = STARLINK-35908
OBJECT_ID      = 2025-271Y
CENTER_NAME    = EARTH
REF_FRAME      = TEME
TIME_SYSTEM    = UTC
MEAN_ELEMENT_THEORY = SGP/SGP4

EPOCH          = 2025-12-09T04:00:01.998720
MEAN_MOTION    = 15.65535127
ECCENTRICITY   = .0000968
INCLINATION    = 53.1587
RA_OF_ASC_NODE = 204.4428
ARG_OF_PERICENTER = 95.4416
MEAN_ANOMALY   = 147.3828

EPHEMERIS_TYPE = 0
CLASSIFICATION_TYPE = U
NORAD_CAT_ID   = 66639
ELEMENT_SET_NO = 999
REV_AT_EPOCH   = 367
BSTAR          = -.22371E-1
MEAN_MOTION_DOT = -.2010777E-1
MEAN_MOTION_DDOT = 0

CCSDS_OMM_VERS = 2.0
CREATION_DATE  = 
ORIGINATOR     = 

OBJECT_NAME    = STARLINK-35921
OBJECT_ID      = 2025-271Z
CENTER_NAME    = EARTH
REF_FRAME      = TEME
TIME_SYSTEM    = UTC
MEAN_ELEMENT_THEORY = SGP/SGP4

EPOCH          = 2025-12-09T04:00:01.998720
MEAN_MOTION    = 15.65535765
ECCENTRICITY   = .0000926
INCLINATION    = 53.1589
RA_OF_ASC_NODE = 204.4395
ARG_OF_PERICENTER = 89.7844
MEAN_ANOMALY   = 154.9532

EPHEMERIS_TYPE = 0
CLASSIFICATION_TYPE = U
NORAD_CAT_ID   = 66640
ELEMENT_SET_NO = 999
REV_AT_EPOCH   = 367
BSTAR          = -.22326E-1
MEAN_MOTION_DOT = -.2007252E-1
MEAN_MOTION_DDOT = 0

CCSDS_OMM_VERS = 2.0
CREATION_DATE  = 
ORIGINATOR     = 

OBJECT_NAME    = STARLINK-35923
OBJECT_ID      = 2025-271AA
CENTER_NAME    = EARTH
REF_FRAME      = TEME
TIME_SYSTEM    = UTC
MEAN_ELEMENT_THEORY = SGP/SGP4

EPOCH          = 2025-12-09T04:00:01.998720
MEAN_MOTION    = 15.65536513
ECCENTRICITY   = .0000957
INCLINATION    = 53.1588
RA_OF_ASC_NODE = 204.4222
ARG_OF_PERICENTER = 91.8832
MEAN_ANOMALY   = 160.5215

EPHEMERIS_TYPE = 0
CLASSIFICATION_TYPE = U
NORAD_CAT_ID   = 66641
ELEMENT_SET_NO = 999
REV_AT_EPOCH   = 367
BSTAR          = -.22334E-1
MEAN_MOTION_DOT = -.200798E-1
MEAN_MOTION_DDOT = 0

CCSDS_OMM_VERS = 2.0
CREATION_DATE  = 
ORIGINATOR     = 

OBJECT_NAME    = STARLINK-35926
OBJECT_ID      = 2025-271AB
CENTER_NAME    = EARTH
REF_FRAME      = TEME
TIME_SYSTEM    = UTC
MEAN_ELEMENT_THEORY = SGP/SGP4

EPOCH          = 2025-12-09T04:00:01.998720
MEAN_MOTION    = 15.65522955
ECCENTRICITY   = .0000801
INCLINATION    = 53.1585
RA_OF_ASC_NODE = 204.4275
ARG_OF_PERICENTER = 84.9428
MEAN_ANOMALY   = 165.5584

EPHEMERIS_TYPE = 0
CLASSIFICATION_TYPE = U
NORAD_CAT_ID   = 66642
ELEMENT_SET_NO = 999
REV_AT_EPOCH   = 343
BSTAR          = -.22235E-1
MEAN_MOTION_DOT = -.1999049E-1
MEAN_MOTION_DDOT = 0

CCSDS_OMM_VERS = 2.0
CREATION_DATE  = 
ORIGINATOR     = 

OBJECT_NAME    = STARLINK-35918
OBJECT_ID      = 2025-271AC
CENTER_NAME    = EARTH
REF_FRAME      = TEME
TIME_SYSTEM    = UTC
MEAN_ELEMENT_THEORY = SGP/SGP4

EPOCH          = 2025-12-09T04:00:01.998720
MEAN_MOTION    = 15.65533867
ECCENTRICITY   = .0000928
INCLINATION    = 53.1588
RA_OF_ASC_NODE = 204.4357
ARG_OF_PERICENTER = 92.1778
MEAN_ANOMALY   = 154.4778

EPHEMERIS_TYPE = 0
CLASSIFICATION_TYPE = U
NORAD_CAT_ID   = 66643
ELEMENT_SET_NO = 999
REV_AT_EPOCH   = 367
BSTAR          = -.22302E-1
MEAN_MOTION_DOT = -.200519E-1
MEAN_MOTION_DDOT = 0

CCSDS_OMM_VERS = 2.0
CREATION_DATE  = 
ORIGINATOR     = 

OBJECT_NAME    = STARLINK-35938
OBJECT_ID      = 2025-271AD
CENTER_NAME    = EARTH
REF_FRAME      = TEME
TIME_SYSTEM    = UTC
MEAN_ELEMENT_THEORY = SGP/SGP4

EPOCH          = 2025-12-09T04:00:01.998720
MEAN_MOTION    = 15.65537765
ECCENTRICITY   = .0000895
INCLINATION    = 53.1586
RA_OF_ASC_NODE = 204.4315
ARG_OF_PERICENTER = 93.9800
MEAN_ANOMALY   = 154.5943

EPHEMERIS_TYPE = 0
CLASSIFICATION_TYPE = U
NORAD_CAT_ID   = 66644
ELEMENT_SET_NO = 999
REV_AT_EPOCH   = 367
BSTAR          = -.22415E-1
MEAN_MOTION_DOT = -.2014411E-1
MEAN_MOTION_DDOT = 0

CCSDS_OMM_VERS = 2.0
CREATION_DATE  = 
ORIGINATOR     = 

OBJECT_NAME    = SHENZHOU-22
OBJECT_ID      = 2025-272A
CENTER_NAME    = EARTH
REF_FRAME      = TEME
TIME_SYSTEM    = UTC
MEAN_ELEMENT_THEORY = SGP/SGP4

EPOCH          = 2025-12-08T14:45:28.776096
MEAN_MOTION    = 15.58905517
ECCENTRICITY   = .00091311
INCLINATION    = 41.4682
RA_OF_ASC_NODE = 41.7451
ARG_OF_PERICENTER = 357.4459
MEAN_ANOMALY   = 2.6332

EPHEMERIS_TYPE = 0
CLASSIFICATION_TYPE = U
NORAD_CAT_ID   = 66645
ELEMENT_SET_NO = 999
REV_AT_EPOCH   = 26300
BSTAR          = .3572809E-3
MEAN_MOTION_DOT = .2832E-3
MEAN_MOTION_DDOT = 0

CCSDS_OMM_VERS = 2.0
CREATION_DATE  = 
ORIGINATOR     = 

OBJECT_NAME    = COSMOS 2597 (RODNIK-S 22)
OBJECT_ID      = 2025-273A
CENTER_NAME    = EARTH
REF_FRAME      = TEME
TIME_SYSTEM    = UTC
MEAN_ELEMENT_THEORY = SGP/SGP4

EPOCH          = 2025-12-09T04:05:59.903808
MEAN_MOTION    = 12.41951209
ECCENTRICITY   = .0007967
INCLINATION    = 82.4984
RA_OF_ASC_NODE = 288.6652
ARG_OF_PERICENTER = 297.6660
MEAN_ANOMALY   = 62.3610

EPHEMERIS_TYPE = 0
CLASSIFICATION_TYPE = U
NORAD_CAT_ID   = 66647
ELEMENT_SET_NO = 999
REV_AT_EPOCH   = 169
BSTAR          = .2156E-3
MEAN_MOTION_DOT = .39E-6
MEAN_MOTION_DDOT = 0

CCSDS_OMM_VERS = 2.0
CREATION_DATE  = 
ORIGINATOR     = 

OBJECT_NAME    = COSMOS 2598 (RODNIK-S 23)
OBJECT_ID      = 2025-273B
CENTER_NAME    = EARTH
REF_FRAME      = TEME
TIME_SYSTEM    = UTC
MEAN_ELEMENT_THEORY = SGP/SGP4

EPOCH          = 2025-12-09T03:59:03.175872
MEAN_MOTION    = 12.42861568
ECCENTRICITY   = .0007263
INCLINATION    = 82.5025
RA_OF_ASC_NODE = 288.6723
ARG_OF_PERICENTER = 259.8521
MEAN_ANOMALY   = 100.1739

EPHEMERIS_TYPE = 0
CLASSIFICATION_TYPE = U
NORAD_CAT_ID   = 66648
ELEMENT_SET_NO = 999
REV_AT_EPOCH   = 169
BSTAR          = -.72557E-4
MEAN_MOTION_DOT = 0
MEAN_MOTION_DDOT = 0

CCSDS_OMM_VERS = 2.0
CREATION_DATE  = 
ORIGINATOR     = 

OBJECT_NAME    = COSMOS 2599 (RODNIK-S 24)
OBJECT_ID      = 2025-273C
CENTER_NAME    = EARTH
REF_FRAME      = TEME
TIME_SYSTEM    = UTC
MEAN_ELEMENT_THEORY = SGP/SGP4

EPOCH          = 2025-12-09T04:10:22.681632
MEAN_MOTION    = 12.41671792
ECCENTRICITY   = .0008179
INCLINATION    = 82.5024
RA_OF_ASC_NODE = 288.6783
ARG_OF_PERICENTER = 308.1712
MEAN_ANOMALY   = 51.8629

EPHEMERIS_TYPE = 0
CLASSIFICATION_TYPE = U
NORAD_CAT_ID   = 66649
ELEMENT_SET_NO = 999
REV_AT_EPOCH   = 169
BSTAR          = .12993E-3
MEAN_MOTION_DOT = .28E-6
MEAN_MOTION_DDOT = 0

CCSDS_OMM_VERS = 2.0
CREATION_DATE  = 
ORIGINATOR     = 

OBJECT_NAME    = BEE-1000
OBJECT_ID      = 2025-274A
CENTER_NAME    = EARTH
REF_FRAME      = TEME
TIME_SYSTEM    = UTC
MEAN_ELEMENT_THEORY = SGP/SGP4

EPOCH          = 2025-12-08T19:04:16.843296
MEAN_MOTION    = 14.91640654
ECCENTRICITY   = .00104437
INCLINATION    = 97.7386
RA_OF_ASC_NODE = 270.0548
ARG_OF_PERICENTER = 266.8251
MEAN_ANOMALY   = 93.1773

EPHEMERIS_TYPE = 0
CLASSIFICATION_TYPE = U
NORAD_CAT_ID   = 66650
ELEMENT_SET_NO = 999
REV_AT_EPOCH   = 181
BSTAR          = .30024702E-3
MEAN_MOTION_DOT = .2963E-4
MEAN_MOTION_DDOT = 0

CCSDS_OMM_VERS = 2.0
CREATION_DATE  = 
ORIGINATOR     = 

OBJECT_NAME    = 2025-274B
OBJECT_ID      = 2025-274B
CENTER_NAME    = EARTH
REF_FRAME      = TEME
TIME_SYSTEM    = UTC
MEAN_ELEMENT_THEORY = SGP/SGP4

EPOCH          = 2025-12-08T19:03:24.934176
MEAN_MOTION    = 14.91750907
ECCENTRICITY   = .00107595
INCLINATION    = 97.7383
RA_OF_ASC_NODE = 270.0549
ARG_OF_PERICENTER = 265.9944
MEAN_ANOMALY   = 94.0045

EPHEMERIS_TYPE = 0
CLASSIFICATION_TYPE = U
NORAD_CAT_ID   = 66651
ELEMENT_SET_NO = 999
REV_AT_EPOCH   = 181
BSTAR          = .62359568E-3
MEAN_MOTION_DOT = .6235E-4
MEAN_MOTION_DDOT = 0

