STARLINK-35908          
1 66639U 25271Y   25343.16668980 -.02010777  00000+0 -22371-1 0  9999
2 66639  53.1587 204.4428 0000968  95.4416 147.3828 15.65535127  3676
STARLINK-35921          
1 66640U 25271Z   25343.16668980 -.02007252  00000+0 -22326-1 0  9995
2 66640  53.1589 204.4395 0000926  89.7844 154.9532 15.65535765  3672
STARLINK-35923          
1 66641U 25271AA  25343.16668980 -.02007980  00000+0 -22334-1 0  9993
2 66641  53.1588 204.4222 0000957  91.8832 160.5215 15.65536513  3679
STARLINK-35926          
1 66642U 25271AB  25343.16668980 -.01999049  00000+0 -22235-1 0  9999
2 66642  53.1585 204.4275 0000801  84.9428 165.5584 15.65522955  3430
STARLINK-35918          
1 66643U 25271AC  25343.16668980 -.02005190  00000+0 -22302-1 0  9991
2 66643  53.1588 204.4357 0000928  92.1778 154.4778 15.65533867  3676
STARLINK-35938          
1 66644U 25271AD  25343.16668980 -.02014411  00000+0 -22415-1 0  9993
2 66644  53.1586 204.4315 0000895  93.9800 154.5943 15.65537765  3673
SHENZHOU-22             
1 66645U 25272A   25342.61491639  .00028320  00000+0  35728-3 0  9992
2 66645  41.4682  41.7451 0009131 357.4459   2.6332 15.58905517263000
COSMOS 2597 (RODNIK-S *)
1 66647U 25273A   25343.17083222  .00000039  00000+0  21560-3 0  9998
2 66647  82.4984 288.6652 0007967 297.6660  62.3610 12.41951209  1696
COSMOS 2598 (RODNIK-S *)
1 66648U 25273B   25343.16600898  .00000000  00000+0 -72557-4 0  9994
2 66648  82.5025 288.6723 0007263 259.8521 100.1739 12.42861568  1690
COSMOS 2599 (RODNIK-S *)
1 66649U 25273C   25343.17387363  .00000028  00000+0  12993-3 0  9991
2 66649  82.5024 288.6783 0008179 308.1712  51.8629 12.41671792  1690
BEE-1000                
1 66650U 25274A   25342.79463939  .00002963  00000+0  30025-3 0  9991
2 66650  97.7386 270.0548 0010443 266.8251  93.1773 14.91640654  1813
2025-274B               
1 66651U 25274B   25342.79403859  .00006235  00000+0  62360-3 0  9990
2 66651  97.7383 270.0549 0010759 265.9944  94.0045 14.91750907  1816
